{
 "generated_at": "2026-07-10T08:23:00Z",
 "sources": [
  {
   "name": "CelesTrak",
   "url": "https://celestrak.org/NORAD/elements/",
   "license": "frei verfügbar; Attribution. Ursprünglich USSPACECOM/Space-Track."
  },
  {
   "name": "GCAT (J. McDowell, planet4589.org)",
   "url": "https://planet4589.org/space/gcat/",
   "license": "CC-BY 4.0"
  }
 ],
 "satellites": [
  {
   "norad": 67373,
   "name": "ICEYE-X64",
   "intl": "2026-004L",
   "group": "sar",
   "gcat": {
    "class": "D",
    "category": "IMG-R",
    "owner": "PUOL",
    "state": "FI"
   },
   "omm": {
    "OBJECT_NAME": "ICEYE-X64",
    "OBJECT_ID": "2026-004L",
    "EPOCH": "2026-07-09T17:15:05.584032",
    "MEAN_MOTION": 14.87978924,
    "ECCENTRICITY": 0.0007506,
    "INCLINATION": 97.8023,
    "RA_OF_ASC_NODE": 188.928,
    "ARG_OF_PERICENTER": 68.6078,
    "MEAN_ANOMALY": 291.5939,
    "EPHEMERIS_TYPE": 0,
    "CLASSIFICATION_TYPE": "U",
    "NORAD_CAT_ID": 67373,
    "ELEMENT_SET_NO": 999,
    "REV_AT_EPOCH": 2664,
    "BSTAR": 0.00010186,
    "MEAN_MOTION_DOT": 0.0000088,
    "MEAN_MOTION_DDOT": 0
   }
  },
  {
   "norad": 66300,
   "name": "ICEYE-X65",
   "intl": "2025-248H",
   "group": "sar",
   "gcat": {
    "class": "B",
    "category": "IMG-R",
    "owner": "SP42",
    "state": "UAE"
   },
   "omm": {
    "OBJECT_NAME": "ICEYE-X65",
    "OBJECT_ID": "2025-248H",
    "EPOCH": "2026-07-08T22:41:54.554784",
    "MEAN_MOTION": 15.07903294,
    "ECCENTRICITY": 0.00048434,
    "INCLINATION": 45.4054,
    "RA_OF_ASC_NODE": 19.7638,
    "ARG_OF_PERICENTER": 164.1787,
    "MEAN_ANOMALY": 195.9246,
    "EPHEMERIS_TYPE": 0,
    "CLASSIFICATION_TYPE": "U",
    "NORAD_CAT_ID": 66300,
    "ELEMENT_SET_NO": 999,
    "REV_AT_EPOCH": 3880,
    "BSTAR": 0.0001423371,
    "MEAN_MOTION_DOT": 0.0000197,
    "MEAN_MOTION_DDOT": 0
   }
  },
  {
   "norad": 66301,
   "name": "ICEYE-X66",
   "intl": "2025-248J",
   "group": "sar",
   "gcat": {
    "class": "B",
    "category": "IMG-R",
    "owner": "SP42",
    "state": "UAE"
   },
   "omm": {
    "OBJECT_NAME": "ICEYE-X66",
    "OBJECT_ID": "2025-248J",
    "EPOCH": "2026-07-08T22:46:02.589312",
    "MEAN_MOTION": 15.09150446,
    "ECCENTRICITY": 0.00044842,
    "INCLINATION": 45.4021,
    "RA_OF_ASC_NODE": 18.8951,
    "ARG_OF_PERICENTER": 159.884,
    "MEAN_ANOMALY": 200.2219,
    "EPHEMERIS_TYPE": 0,
    "CLASSIFICATION_TYPE": "U",
    "NORAD_CAT_ID": 66301,
    "ELEMENT_SET_NO": 999,
    "REV_AT_EPOCH": 3879,
    "BSTAR": 0.00013517921,
    "MEAN_MOTION_DOT": 0.00001929,
    "MEAN_MOTION_DDOT": 0
   }
  },
  {
   "norad": 66302,
   "name": "ICEYE-X67",
   "intl": "2025-248K",
   "group": "sar",
   "gcat": {
    "class": "B",
    "category": "IMG-R",
    "owner": "SP42",
    "state": "UAE"
   },
   "omm": {
    "OBJECT_NAME": "ICEYE-X67",
    "OBJECT_ID": "2025-248K",
    "EPOCH": "2026-07-08T05:52:56.060256",
    "MEAN_MOTION": 15.09128573,
    "ECCENTRICITY": 0.00059712,
    "INCLINATION": 45.4058,
    "RA_OF_ASC_NODE": 22.1771,
    "ARG_OF_PERICENTER": 156.3678,
    "MEAN_ANOMALY": 203.748,
    "EPHEMERIS_TYPE": 0,
    "CLASSIFICATION_TYPE": "U",
    "NORAD_CAT_ID": 66302,
    "ELEMENT_SET_NO": 999,
    "REV_AT_EPOCH": 3870,
    "BSTAR": 0.00012721252,
    "MEAN_MOTION_DOT": 0.00001799,
    "MEAN_MOTION_DDOT": 0
   }
  },
  {
   "norad": 46496,
   "name": "ICEYE-X7",
   "intl": "2020-068L",
   "group": "sar",
   "gcat": {
    "class": "B",
    "category": "IMG-R",
    "owner": "ICEYE",
    "state": "FI"
   },
   "omm": {
    "OBJECT_NAME": "ICEYE-X7",
    "OBJECT_ID": "2020-068L",
    "EPOCH": "2026-07-09T21:00:04.828896",
    "MEAN_MOTION": 15.32022993,
    "ECCENTRICITY": 0.0005527,
    "INCLINATION": 97.7499,
    "RA_OF_ASC_NODE": 158.4412,
    "ARG_OF_PERICENTER": 236.5063,
    "MEAN_ANOMALY": 123.565,
    "EPHEMERIS_TYPE": 0,
    "CLASSIFICATION_TYPE": "U",
    "NORAD_CAT_ID": 46496,
    "ELEMENT_SET_NO": 999,
    "REV_AT_EPOCH": 31826,
    "BSTAR": 0.000277,
    "MEAN_MOTION_DOT": 0.00008485,
    "MEAN_MOTION_DDOT": 0
   }
  },
  {
   "norad": 68494,
   "name": "ICEYE-X71",
   "intl": "2026-067CG",
   "group": "sar",
   "gcat": {
    "class": "B",
    "category": "IMG-R",
    "owner": "ICEYE",
    "state": "FI"
   },
   "omm": {
    "OBJECT_NAME": "ICEYE-X71",
    "OBJECT_ID": "2026-067CG",
    "EPOCH": "2026-07-09T14:23:50.013024",
    "MEAN_MOTION": 14.91776837,
    "ECCENTRICITY": 0.0001526,
    "INCLINATION": 97.7615,
    "RA_OF_ASC_NODE": 148.4919,
    "ARG_OF_PERICENTER": 5.0801,
    "MEAN_ANOMALY": 355.0433,
    "EPHEMERIS_TYPE": 0,
    "CLASSIFICATION_TYPE": "U",
    "NORAD_CAT_ID": 68494,
    "ELEMENT_SET_NO": 999,
    "REV_AT_EPOCH": 1506,
    "BSTAR": 0.00012465,
    "MEAN_MOTION_DOT": 0.00001201,
    "MEAN_MOTION_DDOT": 0
   }
  },
  {
   "norad": 68504,
   "name": "ICEYE-X72",
   "intl": "2026-067CS",
   "group": "sar",
   "gcat": {
    "class": "B",
    "category": "IMG-R",
    "owner": "ICEYE",
    "state": "FI"
   },
   "omm": {
    "OBJECT_NAME": "ICEYE-X72",
    "OBJECT_ID": "2026-067CS",
    "EPOCH": "2026-07-09T16:00:01.998720",
    "MEAN_MOTION": 14.94885297,
    "ECCENTRICITY": 0.0000375,
    "INCLINATION": 97.7629,
    "RA_OF_ASC_NODE": 148.6886,
    "ARG_OF_PERICENTER": 251.4717,
    "MEAN_ANOMALY": 20.8475,
    "EPHEMERIS_TYPE": 0,
    "CLASSIFICATION_TYPE": "U",
    "NORAD_CAT_ID": 68504,
    "ELEMENT_SET_NO": 999,
    "REV_AT_EPOCH": 546,
    "BSTAR": 0.0025152,
    "MEAN_MOTION_DOT": 0.00027457,
    "MEAN_MOTION_DDOT": 0
   }
  },
  {
   "norad": 68496,
   "name": "ICEYE-X73",
   "intl": "2026-067CJ",
   "group": "sar",
   "gcat": {
    "class": "B",
    "category": "IMG-R",
    "owner": "ICEYE",
    "state": "FI"
   },
   "omm": {
    "OBJECT_NAME": "ICEYE-X73",
    "OBJECT_ID": "2026-067CJ",
    "EPOCH": "2026-07-09T16:43:16.511232",
    "MEAN_MOTION": 14.92333974,
    "ECCENTRICITY": 0.0001099,
    "INCLINATION": 97.7612,
    "RA_OF_ASC_NODE": 148.6687,
    "ARG_OF_PERICENTER": 155.5279,
    "MEAN_ANOMALY": 204.5992,
    "EPHEMERIS_TYPE": 0,
    "CLASSIFICATION_TYPE": "U",
    "NORAD_CAT_ID": 68496,
    "ELEMENT_SET_NO": 999,
    "REV_AT_EPOCH": 1508,
    "BSTAR": 0.00021349,
    "MEAN_MOTION_DOT": 0.00002126,
    "MEAN_MOTION_DDOT": 0
   }
  },
  {
   "norad": 68500,
   "name": "ICEYE-X74",
   "intl": "2026-067CN",
   "group": "sar",
   "gcat": {
    "class": "B",
    "category": "IMG-R",
    "owner": "ICEYE",
    "state": "FI"
   },
   "omm": {
    "OBJECT_NAME": "ICEYE-X74",
    "OBJECT_ID": "2026-067CN",
    "EPOCH": "2026-07-08T20:40:06.678624",
    "MEAN_MOTION": 14.9177518,
    "ECCENTRICITY": 0.00014253,
    "INCLINATION": 97.7622,
    "RA_OF_ASC_NODE": 147.7742,
    "ARG_OF_PERICENTER": 4.7683,
    "MEAN_ANOMALY": 355.3549,
    "EPHEMERIS_TYPE": 0,
    "CLASSIFICATION_TYPE": "U",
    "NORAD_CAT_ID": 68500,
    "ELEMENT_SET_NO": 999,
    "REV_AT_EPOCH": 1495,
    "BSTAR": 0.00011638138,
    "MEAN_MOTION_DOT": 0.00001117,
    "MEAN_MOTION_DDOT": 0
   }
  },
  {
   "norad": 68497,
   "name": "ICEYE-X75",
   "intl": "2026-067CK",
   "group": "sar",
   "gcat": {
    "class": "B",
    "category": "IMG-R",
    "owner": "ICEYE",
    "state": "FI"
   },
   "omm": {
    "OBJECT_NAME": "ICEYE-X75",
    "OBJECT_ID": "2026-067CK",
    "EPOCH": "2026-07-09T07:09:26.539776",
    "MEAN_MOTION": 14.92166447,
    "ECCENTRICITY": 0.00009209,
    "INCLINATION": 97.7603,
    "RA_OF_ASC_NODE": 148.2459,
    "ARG_OF_PERICENTER": 152.5969,
    "MEAN_ANOMALY": 207.5299,
    "EPHEMERIS_TYPE": 0,
    "CLASSIFICATION_TYPE": "U",
    "NORAD_CAT_ID": 68497,
    "ELEMENT_SET_NO": 999,
    "REV_AT_EPOCH": 1502,
    "BSTAR": 0.000099517884,
    "MEAN_MOTION_DOT": 0.00000957,
    "MEAN_MOTION_DDOT": 0
   }
  },
  {
   "norad": 68502,
   "name": "ICEYE-X76",
   "intl": "2026-067CQ",
   "group": "sar",
   "gcat": {
    "class": "B",
    "category": "IMG-R",
    "owner": "ICEYE",
    "state": "FI"
   },
   "omm": {
    "OBJECT_NAME": "ICEYE-X76",
    "OBJECT_ID": "2026-067CQ",
    "EPOCH": "2026-07-09T14:16:28.095168",
    "MEAN_MOTION": 14.91743809,
    "ECCENTRICITY": 0.0001035,
    "INCLINATION": 97.7637,
    "RA_OF_ASC_NODE": 148.5145,
    "ARG_OF_PERICENTER": 351.4142,
    "MEAN_ANOMALY": 8.7058,
    "EPHEMERIS_TYPE": 0,
    "CLASSIFICATION_TYPE": "U",
    "NORAD_CAT_ID": 68502,
    "ELEMENT_SET_NO": 999,
    "REV_AT_EPOCH": 1506,
    "BSTAR": 0.000056927,
    "MEAN_MOTION_DOT": 0.00000518,
    "MEAN_MOTION_DDOT": 0
   }
  },
  {
   "norad": 68995,
   "name": "ICEYE-X78",
   "intl": "2026-100R",
   "group": "sar",
   "gcat": {
    "class": "B",
    "category": "IMG-R",
    "owner": "MON/WKL",
    "state": "PL"
   },
   "omm": {
    "OBJECT_NAME": "ICEYE-X78",
    "OBJECT_ID": "2026-100R",
    "EPOCH": "2026-07-08T16:10:09.743232",
    "MEAN_MOTION": 14.91805336,
    "ECCENTRICITY": 0.00038193,
    "INCLINATION": 97.7343,
    "RA_OF_ASC_NODE": 86.7288,
    "ARG_OF_PERICENTER": 67.9217,
    "MEAN_ANOMALY": 292.2407,
    "EPHEMERIS_TYPE": 0,
    "CLASSIFICATION_TYPE": "U",
    "NORAD_CAT_ID": 68995,
    "ELEMENT_SET_NO": 999,
    "REV_AT_EPOCH": 990,
    "BSTAR": 0.000080871235,
    "MEAN_MOTION_DOT": 0.0000076,
    "MEAN_MOTION_DDOT": 0
   }
  },
  {
   "norad": 68996,
   "name": "ICEYE-X82",
   "intl": "2026-100S",
   "group": "sar",
   "gcat": {
    "class": "B",
    "category": "IMG-R",
    "owner": "ICEYE",
    "state": "FI"
   },
   "omm": {
    "OBJECT_NAME": "ICEYE-X82",
    "OBJECT_ID": "2026-100S",
    "EPOCH": "2026-07-08T16:39:17.583264",
    "MEAN_MOTION": 14.91406235,
    "ECCENTRICITY": 0.00058552,
    "INCLINATION": 97.7336,
    "RA_OF_ASC_NODE": 86.6976,
    "ARG_OF_PERICENTER": 79.3227,
    "MEAN_ANOMALY": 280.8651,
    "EPHEMERIS_TYPE": 0,
    "CLASSIFICATION_TYPE": "U",
    "NORAD_CAT_ID": 68996,
    "ELEMENT_SET_NO": 999,
    "REV_AT_EPOCH": 990,
    "BSTAR": 0.00012862744,
    "MEAN_MOTION_DOT": 0.00001229,
    "MEAN_MOTION_DDOT": 0
   }
  }
 ]
}
